{"type": "FeatureCollection", "features": [ {"type": "Feature", "properties": {"norad_id": 66899, "name": "STARLINK-36064", "group": "last-30-days", "lat": -33.542337825555926, "lon": -130.15668824082837, "alt_km": 365.3016577741282, "timestamp": "2025-12-23T11:34:46.947810+00:00", "meta": {"OBJECT_NAME": "STARLINK-36064", "OBJECT_ID": "2025-283X", "EPOCH": "2025-12-23T04:00:01.998720", "MEAN_MOTION": 15.70748744, "ECCENTRICITY": 0.0001363, "INCLINATION": 53.1591, "RA_OF_ASC_NODE": 21.5964, "ARG_OF_PERICENTER": 97.9661, "MEAN_ANOMALY": 139.6261, "EPHEMERIS_TYPE": 0, "CLASSIFICATION_TYPE": "U", "NORAD_CAT_ID": 66899, "ELEMENT_SET_NO": 999, "REV_AT_EPOCH": 404, "BSTAR": -0.017501, "MEAN_MOTION_DOT": -0.01959118, "MEAN_MOTION_DDOT": 0}, "tle": {"line1": "1 66899U 25283X   25357.16668980 -.01959118  00000+0 -17501-1 0  9994", "line2": "2 66899  53.1591  21.5964 0001363  97.9661 139.6261 15.70748744  4045"}}, "geometry": {"type": "Point", "coordinates": [-130.15668824082837, -33.542337825555926]}}, {"type": "Feature", "properties": {"norad_id": 66900, "name": "STARLINK-36074", "group": "last-30-days", "lat": -34.85934697988767, "lon": -128.48327306899546, "alt_km": 365.3948608992714, "timestamp": "2025-12-23T11:34:46.947820+00:00", "meta": {"OBJECT_NAME": "STARLINK-36074", "OBJECT_ID": "2025-283Y", "EPOCH": "2025-12-23T04:00:01.998720", "MEAN_MOTION": 15.70763327, "ECCENTRICITY": 0.0001182, "INCLINATION": 53.1592, "RA_OF_ASC_NODE": 21.5919, "ARG_OF_PERICENTER": 90.0956, "MEAN_ANOMALY": 149.4068, "EPHEMERIS_TYPE": 0, "CLASSIFICATION_TYPE": "U", "NORAD_CAT_ID": 66900, "ELEMENT_SET_NO": 999, "REV_AT_EPOCH": 410, "BSTAR": -0.017678, "MEAN_MOTION_DOT": -0.01977536, "MEAN_MOTION_DDOT": 0}, "tle": {"line1": "1 66900U 25283Y   25357.16668980 -.01977536  00000+0 -17678-1 0  9996", "line2": "2 66900  53.1592  21.5919 0001182  90.0956 149.4068 15.70763327  4104"}}, "geometry": {"type": "Point", "coordinates": [-128.48327306899546, -34.85934697988767]}}, {"type": "Feature", "properties": {"norad_id": 66901, "name": "STARLINK-36043", "group": "last-30-days", "lat": -36.153206159362, "lon": -126.75392942432072, "alt_km": 365.464869150238, "timestamp": "2025-12-23T11:34:46.947830+00:00", "meta": {"OBJECT_NAME": "STARLINK-36043", "OBJECT_ID": "2025-283Z", "EPOCH": "2025-12-23T04:00:01.998720", "MEAN_MOTION": 15.70761731, "ECCENTRICITY": 0.0001211, "INCLINATION": 53.1589, "RA_OF_ASC_NODE": 21.5878, "ARG_OF_PERICENTER": 94.0928, "MEAN_ANOMALY": 147.3275, "EPHEMERIS_TYPE": 0, "CLASSIFICATION_TYPE": "U", "NORAD_CAT_ID": 66901, "ELEMENT_SET_NO": 999, "REV_AT_EPOCH": 410, "BSTAR": -0.017671, "MEAN_MOTION_DOT": -0.01976685, "MEAN_MOTION_DDOT": 0}, "tle": {"line1": "1 66901U 25283Z   25357.16668980 -.01976685  00000+0 -17671-1 0  9994", "line2": "2 66901  53.1589  21.5878 0001211  94.0928 147.3275 15.70761731  4105"}}, "geometry": {"type": "Point", "coordinates": [-126.75392942432072, -36.153206159362]}}, {"type": "Feature", "properties": {"norad_id": 66902, "name": "STARLINK-35983", "group": "last-30-days", "lat": -37.42035586730298, "lon": -124.96854807936639, "alt_km": 365.5856485137574, "timestamp": "2025-12-23T11:34:46.947839+00:00", "meta": {"OBJECT_NAME": "STARLINK-35983", "OBJECT_ID": "2025-283AA", "EPOCH": "2025-12-23T04:00:01.998720", "MEAN_MOTION": 15.70763107, "ECCENTRICITY": 0.0001275, "INCLINATION": 53.1592, "RA_OF_ASC_NODE": 21.5843, "ARG_OF_PERICENTER": 92.9375, "MEAN_ANOMALY": 150.3962, "EPHEMERIS_TYPE": 0, "CLASSIFICATION_TYPE": "U", "NORAD_CAT_ID": 66902, "ELEMENT_SET_NO": 999, "REV_AT_EPOCH": 410, "BSTAR": -0.017666, "MEAN_MOTION_DOT": -0.0197641, "MEAN_MOTION_DDOT": 0}, "tle": {"line1": "1 66902U 25283AA  25357.16668980 -.01976410  00000+0 -17666-1 0  9995", "line2": "2 66902  53.1592  21.5843 0001275  92.9375 150.3962 15.70763107  4101"}}, "geometry": {"type": "Point", "coordinates": [-124.96854807936639, -37.42035586730298]}}, {"type": "Feature", "properties": {"norad_id": 66903, "name": "STARLINK-36077", "group": "last-30-days", "lat": -38.660092406237005, "lon": -123.12157425385566, "alt_km": 365.66808977671644, "timestamp": "2025-12-23T11:34:46.947848+00:00", "meta": {"OBJECT_NAME": "STARLINK-36077", "OBJECT_ID": "2025-283AB", "EPOCH": "2025-12-23T04:00:01.998720", "MEAN_MOTION": 15.70760267, "ECCENTRICITY": 0.0001239, "INCLINATION": 53.1591, "RA_OF_ASC_NODE": 21.5802, "ARG_OF_PERICENTER": 90.2934, "MEAN_ANOMALY": 154.9591, "EPHEMERIS_TYPE": 0, "CLASSIFICATION_TYPE": "U", "NORAD_CAT_ID": 66903, "ELEMENT_SET_NO": 999, "REV_AT_EPOCH": 410, "BSTAR": -0.017627, "MEAN_MOTION_DOT": -0.01972254, "MEAN_MOTION_DDOT": 0}, "tle": {"line1": "1 66903U 25283AB  25357.16668980 -.01972254  00000+0 -17627-1 0  9995", "line2": "2 66903  53.1591  21.5802 0001239  90.2934 154.9591 15.70760267  4100"}}, "geometry": {"type": "Point", "coordinates": [-123.12157425385566, -38.660092406237005]}}, {"type": "Feature", "properties": {"norad_id": 66904, "name": "STARLINK-36059", "group": "last-30-days", "lat": -39.86991306657196, "lon": -121.21040742037118, "alt_km": 365.69763202502236, "timestamp": "2025-12-23T11:34:46.947858+00:00", "meta": {"OBJECT_NAME": "STARLINK-36059", "OBJECT_ID": "2025-283AC", "EPOCH": "2025-12-23T04:00:01.998720", "MEAN_MOTION": 15.7076336, "ECCENTRICITY": 0.0001153, "INCLINATION": 53.1591, "RA_OF_ASC_NODE": 21.5756, "ARG_OF_PERICENTER": 90.1939, "MEAN_ANOMALY": 156.9751, "EPHEMERIS_TYPE": 0, "CLASSIFICATION_TYPE": "U", "NORAD_CAT_ID": 66904, "ELEMENT_SET_NO": 999, "REV_AT_EPOCH": 410, "BSTAR": -0.017676, "MEAN_MOTION_DOT": -0.01977341, "MEAN_MOTION_DDOT": 0}, "tle": {"line1": "1 66904U 25283AC  25357.16668980 -.01977341  00000+0 -17676-1 0  9992", "line2": "2 66904  53.1591  21.5756 0001153  90.1939 156.9751 15.70763360  4105"}}, "geometry": {"type": "Point", "coordinates": [-121.21040742037118, -39.86991306657196]}}, {"type": "Feature", "properties": {"norad_id": 66905, "name": "STARLINK-36075", "group": "last-30-days", "lat": -41.047902053440204, "lon": -119.22859659902937, "alt_km": 365.78297765478146, "timestamp": "2025-12-23T11:34:46.947867+00:00", "meta": {"OBJECT_NAME": "STARLINK-36075", "OBJECT_ID": "2025-283AD", "EPOCH": "2025-12-23T04:00:01.998720", "MEAN_MOTION": 15.70763033, "ECCENTRICITY": 0.0001278, "INCLINATION": 53.1591, "RA_OF_ASC_NODE": 21.5724, "ARG_OF_PERICENTER": 96.5631, "MEAN_ANOMALY": 152.5228, "EPHEMERIS_TYPE": 0, "CLASSIFICATION_TYPE": "U", "NORAD_CAT_ID": 66905, "ELEMENT_SET_NO": 999, "REV_AT_EPOCH": 410, "BSTAR": -0.017674, "MEAN_MOTION_DOT": -0.01977135, "MEAN_MOTION_DDOT": 0}, "tle": {"line1": "1 66905U 25283AD  25357.16668980 -.01977135  00000+0 -17674-1 0  9992", "line2": "2 66905  53.1591  21.5724 0001278  96.5631 152.5228 15.70763033  4106"}}, "geometry": {"type": "Point", "coordinates": [-119.22859659902937, -41.047902053440204]}}, {"type": "Feature", "properties": {"norad_id": 66906, "name": "1998-067XS", "group": "last-30-days", "lat": -33.251060743678046, "lon": 57.822966625590055, "alt_km": 416.32910407243344, "timestamp": "2025-12-23T11:34:46.947876+00:00", "meta": {"OBJECT_NAME": "1998-067XS", "OBJECT_ID": "1998-067XS", "EPOCH": "2025-12-22T11:01:48.942336", "MEAN_MOTION": 15.51071617, "ECCENTRICITY": 0.00028954, "INCLINATION": 51.6319, "RA_OF_ASC_NODE": 94.197, "ARG_OF_PERICENTER": 250.8689, "MEAN_ANOMALY": 109.1987, "EPHEMERIS_TYPE": 0, "CLASSIFICATION_TYPE": "U", "NORAD_CAT_ID": 66906, "ELEMENT_SET_NO": 999, "REV_AT_EPOCH": 312, "BSTAR": 0.00051361561, "MEAN_MOTION_DOT": 0.00030106, "MEAN_MOTION_DDOT": 0}, "tle": {"line1": "1 66906U 98067XS  25356.45959424  .00030106  00000+0  51362-3 0  9999", "line2": "2 66906  51.6319  94.1970 0002895 250.8689 109.1987 15.51071617  3121"}}, "geometry": {"type": "Point", "coordinates": [57.822966625590055, -33.251060743678046]}}, {"type": "Feature", "properties": {"norad_id": 66907, "name": "1998-067XT", "group": "last-30-days", "lat": 14.970525072044055, "lon": 101.21631462265555, "alt_km": 407.2628719395352, "timestamp": "2025-12-23T11:34:46.947885+00:00", "meta": {"OBJECT_NAME": "1998-067XT", "OBJECT_ID": "1998-067XT", "EPOCH": "2025-12-22T07:41:32.890848", "MEAN_MOTION": 15.52583192, "ECCENTRICITY": 0.00038425, "INCLINATION": 51.6311, "RA_OF_ASC_NODE": 94.7687, "ARG_OF_PERICENTER": 286.1212, "MEAN_ANOMALY": 73.9355, "EPHEMERIS_TYPE": 0, "CLASSIFICATION_TYPE": "U", "NORAD_CAT_ID": 66907, "ELEMENT_SET_NO": 999, "REV_AT_EPOCH": 310, "BSTAR": 0.0011084243, "MEAN_MOTION_DOT": 0.00069527, "MEAN_MOTION_DDOT": 0}, "tle": {"line1": "1 66907U 98067XT  25356.32051957  .00069527  00000+0  11084-2 0  9995", "line2": "2 66907  51.6311  94.7687 0003842 286.1212  73.9355 15.52583192  3104"}}, "geometry": {"type": "Point", "coordinates": [101.21631462265555, 14.970525072044055]}}, {"type": "Feature", "properties": {"norad_id": 66908, "name": "1998-067XU", "group": "last-30-days", "lat": 19.149343105906063, "lon": 104.94194330419101, "alt_km": 406.7390650070365, "timestamp": "2025-12-23T11:34:46.947894+00:00", "meta": {"OBJECT_NAME": "1998-067XU", "OBJECT_ID": "1998-067XU", "EPOCH": "2025-12-22T12:18:16.541280", "MEAN_MOTION": 15.52707663, "ECCENTRICITY": 0.00038713, "INCLINATION": 51.631, "RA_OF_ASC_NODE": 93.8007, "ARG_OF_PERICENTER": 283.9304, "MEAN_ANOMALY": 76.1255, "EPHEMERIS_TYPE": 0, "CLASSIFICATION_TYPE": "U", "NORAD_CAT_ID": 66908, "ELEMENT_SET_NO": 999, "REV_AT_EPOCH": 313, "BSTAR": 0.0010107547, "MEAN_MOTION_DOT": 0.00063598, "MEAN_MOTION_DDOT": 0}, "tle": {"line1": "1 66908U 98067XU  25356.51269145  .00063598  00000+0  10108-2 0  9995", "line2": "2 66908  51.6310  93.8007 0003871 283.9304  76.1255 15.52707663  3137"}}, "geometry": {"type": "Point", "coordinates": [104.94194330419101, 19.149343105906063]}}]}